start=new Date('2023-05-12T00:00:00.000Z').valueOf();
sats=[{"ARG_OF_PERICENTER":"278.0464","OBJECT_NAME":"STARLINK-5305","TLE_LINE1":"1 55314U 23010AX  23131.38129116 -.00002730  00000-0 -20962-4 0  9992","CENTER_NAME":"EARTH","TIME_SYSTEM":"UTC","FILE":"3905292","GP_ID":"231608713","RCS_SIZE":"LARGE","DECAY_DATE":null,"MEAN_ANOMALY":"82.0365","OBJECT_TYPE":"PAYLOAD","RA_OF_ASC_NODE":"114.4355","SEMIMAJOR_AXIS":"6737.314","EPHEMERIS_TYPE":"0","INCLINATION":"69.9978","COUNTRY_CODE":"US","ECCENTRICITY":"0.00032320","OBJECT_ID":"2023-010AX","REV_AT_EPOCH":"1806","EPOCH":"2023-05-11T09:09:03.556224","MEAN_MOTION_DOT":"-0.00002730","BSTAR":"-0.00002096200000","APOAPSIS":"361.356","REF_FRAME":"TEME","MEAN_MOTION":"15.69902262","TLE_LINE2":"2 55314  69.9978 114.4355 0003232 278.0464  82.0365 15.69902262 18063","CLASSIFICATION_TYPE":"U","MEAN_MOTION_DDOT":"0.0000000000000","PERIAPSIS":"357.001","SITE":"AFWTR","PERIOD":"91.725","LAUNCH_DATE":"2023-01-19","MEAN_ELEMENT_THEORY":"SGP4","ELEMENT_SET_NO":"999","NORAD_CAT_ID":"55314"},{"TLE_LINE1":"1 55315U 23010AY  23131.91667824 -.00932931  00000-0 -12558-1 0  9999","OBJECT_NAME":"STARLINK-4623","ARG_OF_PERICENTER":"266.7670","TIME_SYSTEM":"UTC","CENTER_NAME":"EARTH","INCLINATION":"70.0009","COUNTRY_CODE":"US","OBJECT_TYPE":"PAYLOAD","RA_OF_ASC_NODE":"113.0448","EPHEMERIS_TYPE":"0","SEMIMAJOR_AXIS":"6765.140","RCS_SIZE":"LARGE","MEAN_ANOMALY":"138.9812","DECAY_DATE":null,"FILE":"3905576","GP_ID":"231639439","REV_AT_EPOCH":"130","ECCENTRICITY":"0.00033930","OBJECT_ID":"2023-010AY","MEAN_MOTION_DOT":"-0.00932931","BSTAR":"-0.01255800000000","EPOCH":"2023-05-11T22:00:00.999936","MEAN_MOTION":"15.60226207","TLE_LINE2":"2 55315  70.0009 113.0448 0003393 266.7670 138.9812 15.60226207  1307","REF_FRAME":"TEME","APOAPSIS":"389.301","MEAN_ELEMENT_THEORY":"SGP4","LAUNCH_DATE":"2023-01-19","PERIOD":"92.294","MEAN_MOTION_DDOT":"0.0000000000000","SITE":"AFWTR","PERIAPSIS":"384.710","CLASSIFICATION_TYPE":"U","NORAD_CAT_ID":"55315","ELEMENT_SET_NO":"999"},{"FILE":"3905576","GP_ID":"231639689","RCS_SIZE":"LARGE","DECAY_DATE":null,"MEAN_ANOMALY":"92.5572","OBJECT_TYPE":"PAYLOAD","RA_OF_ASC_NODE":"113.8325","EPHEMERIS_TYPE":"0","SEMIMAJOR_AXIS":"6737.277","INCLINATION":"69.9984","COUNTRY_CODE":"US","OBJECT_ID":"2023-010AZ","ECCENTRICITY":"0.00029790","REV_AT_EPOCH":"1929","ARG_OF_PERICENTER":"267.5282","OBJECT_NAME":"STARLINK-5257","TLE_LINE1":"1 55316U 23010AZ  23131.66614333 -.00000269  00000-0 -47132-6 0  9990","CENTER_NAME":"EARTH","TIME_SYSTEM":"UTC","CLASSIFICATION_TYPE":"U","MEAN_MOTION_DDOT":"0.0000000000000","SITE":"AFWTR","PERIAPSIS":"357.135","LAUNCH_DATE":"2023-01-19","PERIOD":"91.725","MEAN_ELEMENT_THEORY":"SGP4","ELEMENT_SET_NO":"999","NORAD_CAT_ID":"55316","EPOCH":"2023-05-11T15:59:14.783712","MEAN_MOTION_DOT":"-0.00000269","BSTAR":"-0.00000047132000","APOAPSIS":"361.149","REF_FRAME":"TEME","MEAN_MOTION":"15.69914986","TLE_LINE2":"2 55316  69.9984 113.8325 0002979 267.5282  92.5572 15.69914986 19298"},{"OBJECT_ID":"2023-010BA","ECCENTRICITY":"0.00035140","REV_AT_EPOCH":"1806","OBJECT_TYPE":"PAYLOAD","SEMIMAJOR_AXIS":"6737.299","EPHEMERIS_TYPE":"0","RA_OF_ASC_NODE":"114.4327","INCLINATION":"69.9962","COUNTRY_CODE":"US","FILE":"3905292","GP_ID":"231608622","RCS_SIZE":"LARGE","MEAN_ANOMALY":"90.1797","DECAY_DATE":null,"TIME_SYSTEM":"UTC","CENTER_NAME":"EARTH","TLE_LINE1":"1 55317U 23010BA  23131.38138930 -.00001241  00000-0 -85566-5 0  9997","ARG_OF_PERICENTER":"269.8996","OBJECT_NAME":"STARLINK-5265","NORAD_CAT_ID":"55317","ELEMENT_SET_NO":"999","PERIOD":"91.725","LAUNCH_DATE":"2023-01-19","MEAN_ELEMENT_THEORY":"SGP4","CLASSIFICATION_TYPE":"U","MEAN_MOTION_DDOT":"0.0000000000000","PERIAPSIS":"356.797","SITE":"AFWTR","TLE_LINE2":"2 55317  69.9962 114.4327 0003514 269.8996  90.1797 15.69907249 18068","MEAN_MOTION":"15.69907249","APOAPSIS":"361.532","REF_FRAME":"TEME","MEAN_MOTION_DOT":"-0.00001241","BSTAR":"-0.00000855660000","EPOCH":"2023-05-11T09:09:12.035520"},{"TIME_SYSTEM":"UTC","CENTER_NAME":"EARTH","TLE_LINE1":"1 55318U 23010BB  23131.38117517 -.00002800  00000-0 -21538-4 0  9996","ARG_OF_PERICENTER":"270.1120","OBJECT_NAME":"STARLINK-5180","OBJECT_ID":"2023-010BB","ECCENTRICITY":"0.00033090","REV_AT_EPOCH":"1925","RA_OF_ASC_NODE":"114.4336","SEMIMAJOR_AXIS":"6737.299","EPHEMERIS_TYPE":"0","OBJECT_TYPE":"PAYLOAD","COUNTRY_CODE":"US","INCLINATION":"70.0000","GP_ID":"231604882","FILE":"3905210","MEAN_ANOMALY":"89.9696","DECAY_DATE":null,"RCS_SIZE":"LARGE","MEAN_MOTION":"15.69907374","TLE_LINE2":"2 55318  70.0000 114.4336 0003309 270.1120  89.9696 15.69907374 19256","APOAPSIS":"361.393","REF_FRAME":"TEME","BSTAR":"-0.00002153800000","MEAN_MOTION_DOT":"-0.00002800","EPOCH":"2023-05-11T09:08:53.534688","NORAD_CAT_ID":"55318","ELEMENT_SET_NO":"999","LAUNCH_DATE":"2023-01-19","PERIOD":"91.725","MEAN_ELEMENT_THEORY":"SGP4","CLASSIFICATION_TYPE":"U","SITE":"AFWTR","PERIAPSIS":"356.935","MEAN_MOTION_DDOT":"0.0000000000000"},{"OBJECT_ID":"2023-010BC","ECCENTRICITY":"0.00033250","REV_AT_EPOCH":"1806","OBJECT_TYPE":"PAYLOAD","EPHEMERIS_TYPE":"0","RA_OF_ASC_NODE":"114.4345","SEMIMAJOR_AXIS":"6737.301","INCLINATION":"69.9994","COUNTRY_CODE":"US","FILE":"3905292","GP_ID":"231608712","RCS_SIZE":"LARGE","DECAY_DATE":null,"MEAN_ANOMALY":"88.0128","TIME_SYSTEM":"UTC","CENTER_NAME":"EARTH","TLE_LINE1":"1 55319U 23010BC  23131.38106837 -.00004444  00000-0 -35234-4 0  9994","ARG_OF_PERICENTER":"272.0687","OBJECT_NAME":"STARLINK-5196","NORAD_CAT_ID":"55319","ELEMENT_SET_NO":"999","LAUNCH_DATE":"2023-01-19","PERIOD":"91.725","MEAN_ELEMENT_THEORY":"SGP4","CLASSIFICATION_TYPE":"U","MEAN_MOTION_DDOT":"0.0000000000000","SITE":"AFWTR","PERIAPSIS":"356.926","MEAN_MOTION":"15.69906745","TLE_LINE2":"2 55319  69.9994 114.4345 0003325 272.0687  88.0128 15.69906745 18062","REF_FRAME":"TEME","APOAPSIS":"361.406","MEAN_MOTION_DOT":"-0.00004444","BSTAR":"-0.00003523400000","EPOCH":"2023-05-11T09:08:44.307168"},{"REV_AT_EPOCH":"1740","OBJECT_ID":"2023-013A","ECCENTRICITY":"0.00012700","DECAY_DATE":null,"MEAN_ANOMALY":"98.5612","RCS_SIZE":"LARGE","GP_ID":"231638941","FILE":"3905576","COUNTRY_CODE":"US","INCLINATION":"43.0041","SEMIMAJOR_AXIS":"6937.236","RA_OF_ASC_NODE":"153.4469","EPHEMERIS_TYPE":"0","OBJECT_TYPE":"PAYLOAD","CENTER_NAME":"EARTH","TIME_SYSTEM":"UTC","OBJECT_NAME":"STARLINK-5492","ARG_OF_PERICENTER":"261.5087","TLE_LINE1":"1 55331U 23013A   23131.74983731 -.00000566  00000-0 -26810-4 0  9998","ELEMENT_SET_NO":"999","NORAD_CAT_ID":"55331","PERIAPSIS":"558.220","SITE":"AFETR","MEAN_MOTION_DDOT":"0.0000000000000","CLASSIFICATION_TYPE":"U","MEAN_ELEMENT_THEORY":"SGP4","LAUNCH_DATE":"2023-01-26","PERIOD":"95.838","APOAPSIS":"559.982","REF_FRAME":"TEME","TLE_LINE2":"2 55331  43.0041 153.4469 0001270 261.5087  98.5612 15.02529796 17401","MEAN_MOTION":"15.02529796","EPOCH":"2023-05-11T17:59:45.943584","BSTAR":"-0.00002681000000","MEAN_MOTION_DOT":"-0.00000566"},{"NORAD_CAT_ID":"55332","ELEMENT_SET_NO":"999","MEAN_ELEMENT_THEORY":"SGP4","PERIOD":"95.714","LAUNCH_DATE":"2023-01-26","MEAN_MOTION_DDOT":"0.0000000000000","SITE":"AFETR","PERIAPSIS":"552.517","CLASSIFICATION_TYPE":"U","MEAN_MOTION":"15.04477598","TLE_LINE2":"2 55332  43.0020 140.3983 0000858 265.7218  94.3527 15.04477598 16477","REF_FRAME":"TEME","APOAPSIS":"553.706","MEAN_MOTION_DOT":"-0.00001462","BSTAR":"-0.00008820900000","EPOCH":"2023-05-11T17:54:30.920544","REV_AT_EPOCH":"1647","ECCENTRICITY":"0.00008580","OBJECT_ID":"2023-013B","INCLINATION":"43.0020","COUNTRY_CODE":"US","OBJECT_TYPE":"PAYLOAD","EPHEMERIS_TYPE":"0","RA_OF_ASC_NODE":"140.3983","SEMIMAJOR_AXIS":"6931.247","RCS_SIZE":"LARGE","DECAY_DATE":null,"MEAN_ANOMALY":"94.3527","FILE":"3905576","GP_ID":"231639191","TIME_SYSTEM":"UTC","CENTER_NAME":"EARTH","TLE_LINE1":"1 55332U 23013B   23131.74619121 -.00001462  00000-0 -88209-4 0  9994","OBJECT_NAME":"STARLINK-5491","ARG_OF_PERICENTER":"265.7218"},{"DECAY_DATE":null,"MEAN_ANOMALY":"85.2637","RCS_SIZE":"LARGE","GP_ID":"231639943","FILE":"3905576","COUNTRY_CODE":"US","INCLINATION":"43.0022","EPHEMERIS_TYPE":"0","RA_OF_ASC_NODE":"153.4084","SEMIMAJOR_AXIS":"6937.217","OBJECT_TYPE":"PAYLOAD","REV_AT_EPOCH":"1632","OBJECT_ID":"2023-013C","ECCENTRICITY":"0.00014610","OBJECT_NAME":"STARLINK-5493","ARG_OF_PERICENTER":"274.8039","TLE_LINE1":"1 55333U 23013C   23131.74428143  .00000393  00000-0  44180-4 0  9997","CENTER_NAME":"EARTH","TIME_SYSTEM":"UTC","PERIAPSIS":"558.068","SITE":"AFETR","MEAN_MOTION_DDOT":"0.0000000000000","CLASSIFICATION_TYPE":"U","MEAN_ELEMENT_THEORY":"SGP4","LAUNCH_DATE":"2023-01-26","PERIOD":"95.838","ELEMENT_SET_NO":"999","NORAD_CAT_ID":"55333","EPOCH":"2023-05-11T17:51:45.915552","BSTAR":"0.00004418000000","MEAN_MOTION_DOT":"0.00000393","APOAPSIS":"560.095","REF_FRAME":"TEME","TLE_LINE2":"2 55333  43.0022 153.4084 0001461 274.8039  85.2637 15.02535887 16329","MEAN_MOTION":"15.02535887"},{"DECAY_DATE":null,"MEAN_ANOMALY":"90.3820","RCS_SIZE":"LARGE","GP_ID":"231640693","FILE":"3905576","COUNTRY_CODE":"US","INCLINATION":"43.0015","SEMIMAJOR_AXIS":"6939.734","EPHEMERIS_TYPE":"0","RA_OF_ASC_NODE":"149.2150","OBJECT_TYPE":"PAYLOAD","REV_AT_EPOCH":"1637","OBJECT_ID":"2023-013D","ECCENTRICITY":"0.00011910","OBJECT_NAME":"STARLINK-5652","ARG_OF_PERICENTER":"269.6885","TLE_LINE1":"1 55334U 23013D   23131.76014197  .00000078  00000-0  21198-4 0  9994","CENTER_NAME":"EARTH","TIME_SYSTEM":"UTC","SITE":"AFETR","PERIAPSIS":"560.773","MEAN_MOTION_DDOT":"0.0000000000000","CLASSIFICATION_TYPE":"U","MEAN_ELEMENT_THEORY":"SGP4","LAUNCH_DATE":"2023-01-26","PERIOD":"95.890","ELEMENT_SET_NO":"999","NORAD_CAT_ID":"55334","EPOCH":"2023-05-11T18:14:36.266208","BSTAR":"0.00002119800000","MEAN_MOTION_DOT":"0.00000078","REF_FRAME":"TEME","APOAPSIS":"562.426","TLE_LINE2":"2 55334  43.0015 149.2150 0001191 269.6885  90.3820 15.01718463 16378","MEAN_MOTION":"15.01718463"}];
